TIANQI-37               
1 67476U 26010A   26023.94272960  .00000428  00000+0  29188-3 0  9995
2 67476  44.9834   6.5508 0010595 345.5390  14.5144 14.14271032  1158
TIANQI-38               
1 67477U 26010B   26023.94186704  .00000433  00000+0  29378-3 0  9993
2 67477  44.9798   6.5441 0011090 348.1240  11.9336 14.14421592  1150
TIANQI-39               
1 67478U 26010C   26023.94128844  .00000445  00000+0  29925-3 0  9996
2 67478  44.9844   6.5426 0011021 352.1992   7.8673 14.14523652  1157
TIANQI-40               
1 67479U 26010D   26023.94121329  .00000439  00000+0  29605-3 0  9996
2 67479  44.9850   6.5424 0011774 348.4603  11.5965 14.14535979  1156
TRANSPORTER-15DT        
1 67483U 25276DT  26023.96326582  .00002863  00000+0  24940-3 0  9994
2 67483  97.5432  99.6286 0010028 253.5340 106.4781 14.97633653  1020
HULIANWANG DIGUI-146    
1 67522U 26013A   26023.65941264 -.00000059  00000+0  63671-4 0  9995
2 67522  50.0073 167.6842 0011529 249.8329 110.1332 13.97471225   617
HULIANWANG DIGUI-147    
1 67523U 26013B   26021.72840118 -.00000136  00000+0  93300-5 0  9997
2 67523  49.9994 175.4584 0015328 243.7764 116.1562 13.97588994   347
HULIANWANG DIGUI-148    
1 67524U 26013C   26021.44230141 -.00000137  00000+0  86600-5 0  9992
2 67524  50.0070 176.6144 0010785 240.3737 119.6091 13.98087765   308
HULIANWANG DIGUI-149    
1 67525U 26013D   26021.15633713 -.00000091  00000+0  40401-4 0  9990
2 67525  50.0063 177.7692 0010537 247.0477 112.9313 13.98123959   265
HULIANWANG DIGUI-150    
1 67526U 26013E   26021.65646839 -.00000137  00000+0  86305-5 0  9994
2 67526  50.0089 175.7502 0010020 246.8581 113.1266 13.98253206   351
HULIANWANG DIGUI-151    
1 67527U 26013F   26021.15608316 -.00000614  00000+0 -32354-3 0  9992
2 67527  50.0035 177.7600 0009841 238.6748 121.3191 13.98327198   267
HULIANWANG DIGUI-152    
1 67528U 26013G   26023.94420883 -.00000122  00000+0  19042-4 0  9996
2 67528  50.0048 166.5141 0009744 256.6904 103.2912 13.97836671   657
